{
    "links": {
        "self": "http://www.neowsapp.com/rest/v1/neo/54016473?api_key=iIulBulltgU6a56xZRHN4H3l9WmuAYTsLGpBGhQ2"
    },
    "id": "54016473",
    "neo_reference_id": "54016473",
    "name": "(2020 GO1)",
    "designation": "2020 GO1",
    "nasa_jpl_url": "http://ssd.jpl.nasa.gov/sbdb.cgi?sstr=54016473",
    "absolute_magnitude_h": 27.633,
    "estimated_diameter": {
        "kilometers": {
            "estimated_diameter_min": 0.0079059666,
            "estimated_diameter_max": 0.0176782788
        },
        "meters": {
            "estimated_diameter_min": 7.9059666244,
            "estimated_diameter_max": 17.6782788
        },
        "miles": {
            "estimated_diameter_min": 0.0049125384,
            "estimated_diameter_max": 0.0109847698
        },
        "feet": {
            "estimated_diameter_min": 25.9382115401,
            "estimated_diameter_max": 57.9996042183
        }
    },
    "is_potentially_hazardous_asteroid": false,
    "close_approach_data": [
        {
            "close_approach_date": "2020-04-01",
            "close_approach_date_full": "2020-Apr-01 09:34",
            "epoch_date_close_approach": 1585733640000,
            "relative_velocity": {
                "kilometers_per_second": "6.6593696322",
                "kilometers_per_hour": "23973.7306758021",
                "miles_per_hour": "14896.3439301949"
            },
            "miss_distance": {
                "astronomical": "0.0019528423",
                "lunar": "0.7596556547",
                "kilometers": "292141.048525901",
                "miles": "181528.0299873938"
            },
            "orbiting_body": "Moon"
        },
        {
            "close_approach_date": "2020-04-01",
            "close_approach_date_full": "2020-Apr-01 19:09",
            "epoch_date_close_approach": 1585768140000,
            "relative_velocity": {
                "kilometers_per_second": "7.6462406734",
                "kilometers_per_hour": "27526.4664242487",
                "miles_per_hour": "17103.8757623339"
            },
            "miss_distance": {
                "astronomical": "0.0004614099",
                "lunar": "0.1794884511",
                "kilometers": "69025.938236913",
                "miles": "42890.7291508794"
            },
            "orbiting_body": "Earth"
        },
        {
            "close_approach_date": "2022-02-06",
            "close_approach_date_full": "2022-Feb-06 18:42",
            "epoch_date_close_approach": 1644172920000,
            "relative_velocity": {
                "kilometers_per_second": "14.6327148496",
                "kilometers_per_hour": "52677.7734585377",
                "miles_per_hour": "32731.9198470564"
            },
            "miss_distance": {
                "astronomical": "0.3186522059",
                "lunar": "123.9557080951",
                "kilometers": "47669691.273441433",
                "miles": "29620572.6331124554"
            },
            "orbiting_body": "Earth"
        },
        {
            "close_approach_date": "2022-06-01",
            "close_approach_date_full": "2022-Jun-01 09:09",
            "epoch_date_close_approach": 1654074540000,
            "relative_velocity": {
                "kilometers_per_second": "2.8959494488",
                "kilometers_per_hour": "10425.4180155257",
                "miles_per_hour": "6477.9493219248"
            },
            "miss_distance": {
                "astronomical": "0.4787060695",
                "lunar": "186.2166610355",
                "kilometers": "71613408.353271965",
                "miles": "44498508.527464517"
            },
            "orbiting_body": "Earth"
        },
        {
            "close_approach_date": "2115-02-12",
            "close_approach_date_full": "2115-Feb-12 10:58",
            "epoch_date_close_approach": 4579412280000,
            "relative_velocity": {
                "kilometers_per_second": "13.3671132495",
                "kilometers_per_hour": "48121.6076981644",
                "miles_per_hour": "29900.8956277844"
            },
            "miss_distance": {
                "astronomical": "0.2766506397",
                "lunar": "107.6170988433",
                "kilometers": "41386346.433257439",
                "miles": "25716283.1937290982"
            },
            "orbiting_body": "Earth"
        }
    ],
    "orbital_data": {
        "orbit_id": "2",
        "orbit_determination_date": "2020-04-09 06:22:33",
        "first_observation_date": "2020-04-02",
        "last_observation_date": "2020-04-05",
        "data_arc_in_days": 3,
        "observations_used": 29,
        "orbit_uncertainty": "7",
        "minimum_orbit_intersection": ".000296689",
        "jupiter_tisserand_invariant": "4.354",
        "epoch_osculation": "2459000.5",
        "eccentricity": ".3600899213629951",
        "semi_major_axis": "1.555993036300562",
        "inclination": "8.343941229697123",
        "ascending_node_longitude": "192.205584284917",
        "orbital_period": "708.9406847406973",
        "perihelion_distance": ".9956956262177246",
        "perihelion_argument": "349.6111592492467",
        "aphelion_distance": "2.116290446383399",
        "perihelion_time": "2458932.250958400817",
        "mean_anomaly": "34.65685565033201",
        "mean_motion": ".5077998875627711",
        "equinox": "J2000",
        "orbit_class": {
            "orbit_class_type": "APO",
            "orbit_class_description": "Near-Earth asteroid orbits which cross the Earth’s orbit similar to that of 1862 Apollo",
            "orbit_class_range": "a (semi-major axis) > 1.0 AU; q (perihelion) < 1.017 AU"
        }
    },
    "is_sentry_object": false
}